{
    "CCSDS_OMM_VERS": "3.0",
    "COMMENT": "GENERATED VIA SPACE-TRACK.ORG API",
    "CREATION_DATE": "2025-05-22T17:14:14",
    "ORIGINATOR": "18 SPCS",
    "OBJECT_NAME": "NAVSTAR 70 (USA 251)",
    "OBJECT_ID": "2014-026A",
    "CENTER_NAME": "EARTH",
    "REF_FRAME": "TEME",
    "TIME_SYSTEM": "UTC",
    "MEAN_ELEMENT_THEORY": "SGP4",
    "EPOCH": "2025-05-22T13:52:36.025536",
    "MEAN_MOTION": "2.00575883",
    "ECCENTRICITY": "0.00351740",
    "INCLINATION": "56.6532",
    "RA_OF_ASC_NODE": "346.7066",
    "ARG_OF_PERICENTER": "320.3899",
    "MEAN_ANOMALY": "39.3914",
    "EPHEMERIS_TYPE": "0",
    "CLASSIFICATION_TYPE": "U",
    "NORAD_CAT_ID": "39741",
    "ELEMENT_SET_NO": "999",
    "REV_AT_EPOCH": "8070",
    "BSTAR": "0.00000000000000",
    "MEAN_MOTION_DOT": "-0.00000061",
    "MEAN_MOTION_DDOT": "0.0000000000000",
    "SEMIMAJOR_AXIS": "26559.264",
    "PERIOD": "717.933",
    "APOAPSIS": "20274.548",
    "PERIAPSIS": "20087.709",
    "OBJECT_TYPE": "PAYLOAD",
    "RCS_SIZE": "LARGE",
    "COUNTRY_CODE": "US",
    "LAUNCH_DATE": "2014-05-17",
    "SITE": "AFETR",
    "DECAY_DATE": null,
    "FILE": "4736220",
    "GP_ID": "288142362",
    "TLE_LINE0": "0 NAVSTAR 70 (USA 251)",
    "TLE_LINE1": "1 39741U 14026A   25142.57819474 -.00000061  00000-0  00000-0 0  9994",
    "TLE_LINE2": "2 39741  56.6532 346.7066 0035174 320.3899  39.3914  2.00575883 80701"
}